[
    {
        "Altitude(m)": 553468.2997032446,
        "Argument of Periapsis(deg)": 0.026491964442854003,
        "Eccentricity": 0.0,
        "Inclination(deg)": 53.0,
        "Latitude(deg)": 11.875156351671556,
        "Longitude(deg)": 130.88292601693877,
        "Mean Anomaly(deg)": 14.911871470310333,
        "RAAN(deg)": 224.96057347411207,
        "Satellite Name": "Starlink Shell 1 1010",
        "Satellite Number": 1010,
        "Semi-Major Axis(m)": 6931778.249405717,
        "Time(s)": 760
    },
    {
        "Altitude(m)": 553469.7012480083,
        "Argument of Periapsis(deg)": 0.02684054292236524,
        "Eccentricity": 0.0,
        "Inclination(deg)": 53.0,
        "Latitude(deg)": 12.372468476026624,
        "Longitude(deg)": 131.23568181194628,
        "Mean Anomaly(deg)": 15.538702673867054,
        "RAAN(deg)": 224.9600547040346,
        "Satellite Name": "Starlink Shell 1 1010",
        "Satellite Number": 1010,
        "Semi-Major Axis(m)": 6931778.249405717,
        "Time(s)": 770
    },
    {
        "Altitude(m)": 553473.6929339672,
        "Argument of Periapsis(deg)": 0.027189121401876473,
        "Eccentricity": 0.0,
        "Inclination(deg)": 53.0,
        "Latitude(deg)": 12.869194379798122,
        "Longitude(deg)": 131.5899326679198,
        "Mean Anomaly(deg)": 16.165533877423826,
        "RAAN(deg)": 224.95953593395714,
        "Satellite Name": "Starlink Shell 1 1010",
        "Satellite Number": 1010,
        "Semi-Major Axis(m)": 6931778.249405717,
        "Time(s)": 780
    },
    {
        "Altitude(m)": 553480.2500436447,
        "Argument of Periapsis(deg)": 0.02753769988138771,
        "Eccentricity": 0.0,
        "Inclination(deg)": 53.0,
        "Latitude(deg)": 13.365307182632732,
        "Longitude(deg)": 131.94574486480823,
        "Mean Anomaly(deg)": 16.792365080980524,
        "RAAN(deg)": 224.95901716387965,
        "Satellite Name": "Starlink Shell 1 1010",
        "Satellite Number": 1010,
        "Semi-Major Axis(m)": 6931778.249405717,
        "Time(s)": 790
    },
    {
        "Altitude(m)": 553489.3466908426,
        "Argument of Periapsis(deg)": 0.02788627836089895,
        "Eccentricity": 0.0,
        "Inclination(deg)": 53.0,
        "Latitude(deg)": 13.860779667740907,
        "Longitude(deg)": 132.30318484985938,
        "Mean Anomaly(deg)": 17.419196284537243,
        "RAAN(deg)": 224.9584983938022,
        "Satellite Name": "Starlink Shell 1 1010",
        "Satellite Number": 1010,
        "Semi-Major Axis(m)": 6931778.249405717,
        "Time(s)": 800
    },
    {
        "Altitude(m)": 553500.9558361797,
        "Argument of Periapsis(deg)": 0.02823485684041019,
        "Eccentricity": 0.0,
        "Inclination(deg)": 53.0,
        "Latitude(deg)": 14.355584266194565,
        "Longitude(deg)": 132.66231976886266,
        "Mean Anomaly(deg)": 18.046027488093912,
        "RAAN(deg)": 224.9579796237247,
        "Satellite Name": "Starlink Shell 1 1010",
        "Satellite Number": 1010,
        "Semi-Major Axis(m)": 6931778.249405717,
        "Time(s)": 810
    },
    {
        "Altitude(m)": 553515.049303251,
        "Argument of Periapsis(deg)": 0.028583435319921423,
        "Eccentricity": 0.0,
        "Inclination(deg)": 53.0,
        "Latitude(deg)": 14.849693040907086,
        "Longitude(deg)": 133.02321799742043,
        "Mean Anomaly(deg)": 18.67285869165066,
        "RAAN(deg)": 224.95746085364723,
        "Satellite Name": "Starlink Shell 1 1010",
        "Satellite Number": 1010,
        "Semi-Major Axis(m)": 6931778.249405717,
        "Time(s)": 820
    },
    {
        "Altitude(m)": 553531.5977952997,
        "Argument of Periapsis(deg)": 0.028932013799432665,
        "Eccentricity": 0.0,
        "Inclination(deg)": 53.0,
        "Latitude(deg)": 15.343077670282673,
        "Longitude(deg)": 133.3859481593575,
        "Mean Anomaly(deg)": 19.29968989520733,
        "RAAN(deg)": 224.95694208356974,
        "Satellite Name": "Starlink Shell 1 1010",
        "Satellite Number": 1010,
        "Semi-Major Axis(m)": 6931778.249405717,
        "Time(s)": 830
    },
    {
        "Altitude(m)": 553550.5709124435,
        "Argument of Periapsis(deg)": 0.029280592278943897,
        "Eccentricity": 0.0,
        "Inclination(deg)": 53.0,
        "Latitude(deg)": 15.835709431521835,
        "Longitude(deg)": 133.7505796579973,
        "Mean Anomaly(deg)": 19.926521098764,
        "RAAN(deg)": 224.95642331349228,
        "Satellite Name": "Starlink Shell 1 1010",
        "Satellite Number": 1010,
        "Semi-Major Axis(m)": 6931778.249405717,
        "Time(s)": 840
    },
    {
        "Altitude(m)": 553571.9371694339,
        "Argument of Periapsis(deg)": 0.029629170758455132,
        "Eccentricity": 0.0,
        "Inclination(deg)": 53.0,
        "Latitude(deg)": 16.327559183569406,
        "Longitude(deg)": 134.11718320740874,
        "Mean Anomaly(deg)": 20.553352302320747,
        "RAAN(deg)": 224.9559045434148,
        "Satellite Name": "Starlink Shell 1 1010",
        "Satellite Number": 1010,
        "Semi-Major Axis(m)": 6931778.249405717,
        "Time(s)": 850
    },
    {
        "Altitude(m)": 553595.6640139401,
        "Argument of Periapsis(deg)": 0.02997774923796637,
        "Eccentricity": 0.0,
        "Inclination(deg)": 53.0,
        "Latitude(deg)": 16.818597349696038,
        "Longitude(deg)": 134.4858296826281,
        "Mean Anomaly(deg)": 21.18018350587752,
        "RAAN(deg)": 224.95538577333733,
        "Satellite Name": "Starlink Shell 1 1010",
        "Satellite Number": 1010,
        "Semi-Major Axis(m)": 6931778.249405717,
        "Time(s)": 860
    },
    {
        "Altitude(m)": 553621.7178453319,
        "Argument of Periapsis(deg)": 0.030326327717477602,
        "Eccentricity": 0.0,
        "Inclination(deg)": 53.0,
        "Latitude(deg)": 17.308793899696017,
        "Longitude(deg)": 134.85659149125604,
        "Mean Anomaly(deg)": 21.80701470943414,
        "RAAN(deg)": 224.9548670032599,
        "Satellite Name": "Starlink Shell 1 1010",
        "Satellite Number": 1010,
        "Semi-Major Axis(m)": 6931778.249405717,
        "Time(s)": 870
    },
    {
        "Altitude(m)": 553650.0640339899,
        "Argument of Periapsis(deg)": 0.030674906196988847,
        "Eccentricity": 0.0,
        "Inclination(deg)": 53.0,
        "Latitude(deg)": 17.798118331694553,
        "Longitude(deg)": 135.22954142348502,
        "Mean Anomaly(deg)": 22.433845912990936,
        "RAAN(deg)": 224.9543482331824,
        "Satellite Name": "Starlink Shell 1 1010",
        "Satellite Number": 1010,
        "Semi-Major Axis(m)": 6931778.249405717,
        "Time(s)": 880
    },
    {
        "Altitude(m)": 553680.6669410701,
        "Argument of Periapsis(deg)": 0.031023484676500086,
        "Eccentricity": 0.0,
        "Inclination(deg)": 53.0,
        "Latitude(deg)": 18.286539653546697,
        "Longitude(deg)": 135.60475318294922,
        "Mean Anomaly(deg)": 23.060677116547602,
        "RAAN(deg)": 224.95382946310494,
        "Satellite Name": "Starlink Shell 1 1010",
        "Satellite Number": 1010,
        "Semi-Major Axis(m)": 6931778.249405717,
        "Time(s)": 890
    },
    {
        "Altitude(m)": 553713.4899387906,
        "Argument of Periapsis(deg)": 0.03137206315601132,
        "Eccentricity": 0.0,
        "Inclination(deg)": 53.0,
        "Latitude(deg)": 18.774026363820038,
        "Longitude(deg)": 135.98230191738952,
        "Mean Anomaly(deg)": 23.687508320104325,
        "RAAN(deg)": 224.95331069302748,
        "Satellite Name": "Starlink Shell 1 1010",
        "Satellite Number": 1010,
        "Semi-Major Axis(m)": 6931778.249405717,
        "Time(s)": 900
    },
    {
        "Altitude(m)": 553748.4954311509,
        "Argument of Periapsis(deg)": 0.03172064163552255,
        "Eccentricity": 0.0,
        "Inclination(deg)": 53.0,
        "Latitude(deg)": 19.260546432348484,
        "Longitude(deg)": 136.3622632362136,
        "Mean Anomaly(deg)": 24.314339523661026,
        "RAAN(deg)": 224.95279192294998,
        "Satellite Name": "Starlink Shell 1 1010",
        "Satellite Number": 1010,
        "Semi-Major Axis(m)": 6931778.249405717,
        "Time(s)": 910
    },
    {
        "Altitude(m)": 553785.6448751325,
        "Argument of Periapsis(deg)": 0.0320692201150338,
        "Eccentricity": 0.0,
        "Inclination(deg)": 53.0,
        "Latitude(deg)": 19.74606728034491,
        "Longitude(deg)": 136.7447137406554,
        "Mean Anomaly(deg)": 24.94117072721774,
        "RAAN(deg)": 224.9522731528725,
        "Satellite Name": "Starlink Shell 1 1010",
        "Satellite Number": 1010,
        "Semi-Major Axis(m)": 6931778.249405717,
        "Time(s)": 920
    },
    {
        "Altitude(m)": 553824.8988023215,
        "Argument of Periapsis(deg)": 0.032417798594545036,
        "Eccentricity": 0.0,
        "Inclination(deg)": 53.0,
        "Latitude(deg)": 20.230555760060657,
        "Longitude(deg)": 137.12973155360484,
        "Mean Anomaly(deg)": 25.568001930774514,
        "RAAN(deg)": 224.95175438279503,
        "Satellite Name": "Starlink Shell 1 1010",
        "Satellite Number": 1010,
        "Semi-Major Axis(m)": 6931778.249405717,
        "Time(s)": 930
    },
    {
        "Altitude(m)": 553866.2168409987,
        "Argument of Periapsis(deg)": 0.03276637707405627,
        "Eccentricity": 0.0,
        "Inclination(deg)": 53.0,
        "Latitude(deg)": 20.713978133985048,
        "Longitude(deg)": 137.51739533617845,
        "Mean Anomaly(deg)": 26.19483313433121,
        "RAAN(deg)": 224.95123561271754,
        "Satellite Name": "Starlink Shell 1 1010",
        "Satellite Number": 1010,
        "Semi-Major Axis(m)": 6931778.249405717,
        "Time(s)": 940
    }
]